ONEWEB-0395             
1 50475U 21132G   25347.23178831 -.00000785  00000+0 -22521-2 0  9999
2 50475  87.8856  58.1067 0001491 106.0885 254.0408 13.11417496191343
ONEWEB-0396             
1 50476U 21132H   25347.11794752  .00000123  00000+0  28001-3 0  9997
2 50476  87.9182  12.4056 0001829  98.9958 261.1381 13.18685793197117
ONEWEB-0397             
1 50477U 21132J   25347.13278672  .00000065  00000+0  13233-3 0  9994
2 50477  87.9183  12.4027 0001936  99.6568 260.4783 13.18686680197092
ONEWEB-0398             
1 50478U 21132K   25347.19960376  .00000516  00000+0  14200-2 0  9995
2 50478  87.8865  58.0858 0001307 100.1290 259.9986 13.11414604191235
ONEWEB-0399             
1 50479U 21132L   25347.26232354  .00000478  00000+0  13122-2 0  9991
2 50479  87.8858  58.0871 0001933 118.6113 241.5210 13.11421128191232
ONEWEB-0400             
1 50480U 21132M   25347.11134473  .00000104  00000+0  23080-3 0  9991
2 50480  87.9183  12.3969 0001629  92.1929 267.9389 13.18686535197080
ONEWEB-0401             
1 50481U 21132N   25347.30764074 -.00000047  00000+0 -15183-3 0  9992
2 50481  87.9182  12.3546 0001973  93.9314 266.2044 13.18685030197113
ONEWEB-0402             
1 50482U 21132P   25347.11959898 -.00000029  00000+0 -10650-3 0  9996
2 50482  87.9181  12.3843 0002371  92.5668 267.5736 13.18685490197115
